{
    "links": {
        "self": "http://www.neowsapp.com/rest/v1/neo/3802017?api_key=iIulBulltgU6a56xZRHN4H3l9WmuAYTsLGpBGhQ2"
    },
    "id": "3802017",
    "neo_reference_id": "3802017",
    "name": "(2018 FH2)",
    "designation": "2018 FH2",
    "nasa_jpl_url": "http://ssd.jpl.nasa.gov/sbdb.cgi?sstr=3802017",
    "absolute_magnitude_h": 23.8,
    "estimated_diameter": {
        "kilometers": {
            "estimated_diameter_min": 0.046190746,
            "estimated_diameter_max": 0.1032856481
        },
        "meters": {
            "estimated_diameter_min": 46.1907460282,
            "estimated_diameter_max": 103.2856480504
        },
        "miles": {
            "estimated_diameter_min": 0.0287015901,
            "estimated_diameter_max": 0.0641787064
        },
        "feet": {
            "estimated_diameter_min": 151.544447199,
            "estimated_diameter_max": 338.8636855496
        }
    },
    "is_potentially_hazardous_asteroid": false,
    "close_approach_data": [
        {
            "close_approach_date": "2016-03-26",
            "close_approach_date_full": "2016-Mar-26 05:43",
            "epoch_date_close_approach": 1458970980000,
            "relative_velocity": {
                "kilometers_per_second": "9.3484848463",
                "kilometers_per_hour": "33654.5454465686",
                "miles_per_hour": "20911.6257526193"
            },
            "miss_distance": {
                "astronomical": "0.4499218121",
                "lunar": "175.0195849069",
                "kilometers": "67307344.756700227",
                "miles": "41822844.6807360526"
            },
            "orbiting_body": "Earth"
        },
        {
            "close_approach_date": "2018-03-18",
            "close_approach_date_full": "2018-Mar-18 06:49",
            "epoch_date_close_approach": 1521355740000,
            "relative_velocity": {
                "kilometers_per_second": "10.8446741388",
                "kilometers_per_hour": "39040.8268995878",
                "miles_per_hour": "24258.4515810245"
            },
            "miss_distance": {
                "astronomical": "0.1397385493",
                "lunar": "54.3582956777",
                "kilometers": "20904589.332169991",
                "miles": "12989509.4794522358"
            },
            "orbiting_body": "Earth"
        }
    ],
    "orbital_data": {
        "orbit_id": "6",
        "orbit_determination_date": "2018-04-13 06:28:58",
        "first_observation_date": "2018-03-18",
        "last_observation_date": "2018-04-11",
        "data_arc_in_days": 24,
        "observations_used": 39,
        "orbit_uncertainty": "7",
        "minimum_orbit_intersection": ".125843",
        "jupiter_tisserand_invariant": "4.200",
        "epoch_osculation": "2459000.5",
        "eccentricity": ".3446109766572598",
        "semi_major_axis": "1.628316381339345",
        "inclination": "16.91871178353198",
        "ascending_node_longitude": "5.467375978192985",
        "orbital_period": "758.9385529684897",
        "perihelion_distance": "1.067180682858978",
        "perihelion_argument": "138.4632297320814",
        "aphelion_distance": "2.189452079819712",
        "perihelion_time": "2458925.360116622612",
        "mean_anomaly": "35.64235590622681",
        "mean_motion": ".4743467024990451",
        "equinox": "J2000",
        "orbit_class": {
            "orbit_class_type": "AMO",
            "orbit_class_description": "Near-Earth asteroid orbits similar to that of 1221 Amor",
            "orbit_class_range": "1.017 AU < q (perihelion) < 1.3 AU"
        }
    },
    "is_sentry_object": false
}